[{"OBJECT_NAME":"STARLINK-6087","OBJECT_ID":"2023-078AL","EPOCH":"2026-03-09T22:30:04.617216","MEAN_MOTION":14.9831354,"ECCENTRICITY":0.0002879,"INCLINATION":70.0002,"RA_OF_ASC_NODE":323.7109,"ARG_OF_PERICENTER":265.7258,"MEAN_ANOMALY":94.3572,"EPHEMERIS_TYPE":0,"CLASSIFICATION_TYPE":"U","NORAD_CAT_ID":56801,"ELEMENT_SET_NO":999,"REV_AT_EPOCH":15321,"BSTAR":-0.00023492669,"MEAN_MOTION_DOT":-2.894e-5,"MEAN_MOTION_DDOT":0},{"OBJECT_NAME":"CZ-6A DEB","OBJECT_ID":"2022-151QF","EPOCH":"2026-03-08T03:18:15.836256","MEAN_MOTION":14.86025729,"ECCENTRICITY":0.00611616,"INCLINATION":98.6168,"RA_OF_ASC_NODE":140.6535,"ARG_OF_PERICENTER":185.9517,"MEAN_ANOMALY":174.0977,"EPHEMERIS_TYPE":0,"CLASSIFICATION_TYPE":"U","NORAD_CAT_ID":54894,"ELEMENT_SET_NO":999,"REV_AT_EPOCH":17291,"BSTAR":0.0053316953,"MEAN_MOTION_DOT":0.00048472,"MEAN_MOTION_DDOT":0}]
